NORAD_CAT_ID,OBJECT_NAME,OBJECT_TYPE,EPOCH,MEAN_MOTION,ECCENTRICITY,INCLINATION,RA_OF_ASC_NODE,ARG_OF_PERICENTER,MEAN_ANOMALY,BSTAR,MEAN_MOTION_DOT,MEAN_MOTION_DDOT,TLE_LINE0,TLE_LINE1,TLE_LINE2,SEMIMAJOR_AXIS,PERIOD,APOGEE,PERIGEE,DECAYED
53252.0,STARLINK-4132,PAYLOAD,2024-04-05 18:23:27,15.08850349,0.0001344,53.2147,109.6155,93.2049,266.9097,0.00047823,7.333e-05,0.0,0 STARLINK-4132,1 53252U 22086L   24096.76629547  .00007333  00000-0  47823-3 0  9995,2 53252  53.2147 109.6155 0001344  93.2049 266.9097 15.08850349 94967,6917.849,95.437,540.644,538.784,0.0
53252.0,STARLINK-4132,PAYLOAD,2024-04-06 00:45:00,15.0884533,0.0001687,53.2163,108.4254,103.6964,256.4216,0.00027538,4.098e-05,0.0,0 STARLINK-4132,1 53252U 22086L   24097.03125688  .00004098  00000-0  27538-3 0  9999,2 53252  53.2163 108.4254 0001687 103.6964 256.4216 15.08845330 94808,6917.864,95.437,540.896,538.562,0.0
53252.0,STARLINK-4132,PAYLOAD,2024-04-06 07:06:33,15.0883924,0.0001701,53.217,107.2354,104.1286,255.9895,0.00010461,1.377e-05,0.0,0 STARLINK-4132,1 53252U 22086L   24097.29621938  .00001377  00000-0  10461-3 0  9990,2 53252  53.2170 107.2354 0001701 104.1286 255.9895 15.08839240 94848,6917.883,95.438,540.924,538.571,0.0
53252.0,STARLINK-4132,PAYLOAD,2024-04-06 18:14:15,15.08836904,0.0001608,53.2175,105.1532,105.2948,254.8222,4.754e-05,4.69e-06,0.0,0 STARLINK-4132,1 53252U 22086L   24097.75990190  .00000469  00000-0  47540-4 0  9990,2 53252  53.2175 105.1532 0001608 105.2948 254.8222 15.08836904 95118,6917.89,95.438,540.867,538.642,0.0
53252.0,STARLINK-4132,PAYLOAD,2024-04-07 10:08:07,15.08836855,0.000164,53.2182,102.1795,107.9483,252.1688,2.3876e-06,-2.5e-06,0.0,0 STARLINK-4132,1 53252U 22086L   24098.42230398 -.00000250  00000-0  23876-5 0  9998,2 53252  53.2182 102.1795 0001640 107.9483 252.1688 15.08836855 95014,6917.89,95.438,540.89,538.62,0.0
53252.0,STARLINK-4132,PAYLOAD,2024-04-08 09:58:53,15.088396,0.0001391,53.2164,97.7219,95.3162,264.7989,0.00011573,1.554e-05,0.0,0 STARLINK-4132,1 53252U 22086L   24099.41590211  .00001554  00000-0  11573-3 0  9997,2 53252  53.2164  97.7219 0001391  95.3162 264.7989 15.08839600 95363,6917.882,95.438,540.709,538.784,0.0
53252.0,STARLINK-4132,PAYLOAD,2024-04-08 16:20:26,15.08844553,0.0001383,53.2165,96.5324,95.4286,264.6864,0.00013434,1.851e-05,0.0,0 STARLINK-4132,1 53252U 22086L   24099.68085860  .00001851  00000-0  13434-3 0  9993,2 53252  53.2165  96.5324 0001383  95.4286 264.6864 15.08844553 95204,6917.866,95.437,540.688,538.775,0.0
53252.0,STARLINK-4132,PAYLOAD,2024-04-09 00:17:22,15.08835837,0.0001505,53.2181,95.0458,95.7062,264.4101,8.2243e-05,1.021e-05,0.0,0 STARLINK-4132,1 53252U 22086L   24100.01206627  .00001021  00000-0  82243-4 0  9993,2 53252  53.2181  95.0458 0001505  95.7062 264.4101 15.08835837 95459,6917.893,95.438,540.799,538.717,0.0
53252.0,STARLINK-4132,PAYLOAD,2024-04-09 05:03:32,15.08833982,0.0001478,53.2179,94.1537,95.4531,264.6629,6.3398e-05,7.21e-06,0.0,0 STARLINK-4132,1 53252U 22086L   24100.21078839  .00000721  00000-0  63398-4 0  9993,2 53252  53.2179  94.1537 0001478  95.4531 264.6629 15.08833982 95288,6917.899,95.438,540.786,538.741,0.0
53252.0,STARLINK-4132,PAYLOAD,2024-04-09 06:38:55,15.08834986,0.000148,53.218,93.8563,95.6205,264.4956,6.9833e-05,8.23e-06,0.0,0 STARLINK-4132,1 53252U 22086L   24100.27702773  .00000823  00000-0  69833-4 0  9993,2 53252  53.2180  93.8563 0001480  95.6205 264.4956 15.08834986 95497,6917.896,95.438,540.785,538.737,0.0
53252.0,STARLINK-4132,PAYLOAD,2024-04-09 16:11:13,15.0884198,0.0001521,53.2186,92.0728,96.9698,263.1468,9.215e-05,1.179e-05,0.0,0 STARLINK-4132,1 53252U 22086L   24100.67446354  .00001179  00000-0  92150-4 0  9990,2 53252  53.2186  92.0728 0001521  96.9698 263.1468 15.08841980 95354,6917.874,95.437,540.792,538.687,0.0
53252.0,STARLINK-4132,PAYLOAD,2024-04-10 09:40:28,15.08840966,0.0001553,53.2187,88.8023,101.6476,258.469,4.1395e-05,3.71e-06,0.0,0 STARLINK-4132,1 53252U 22086L   24101.40310541  .00000371  00000-0  41395-4 0  9998,2 53252  53.2187  88.8023 0001553 101.6476 258.4690 15.08840966 95660,6917.877,95.437,540.817,538.668,0.0
53252.0,STARLINK-4132,PAYLOAD,2024-04-10 16:02:00,15.08844676,0.0001499,53.2186,87.6119,93.2765,266.8399,5.1186e-05,5.27e-06,0.0,0 STARLINK-4132,1 53252U 22086L   24101.66806224  .00000527  00000-0  51186-4 0  9996,2 53252  53.2186  87.6119 0001499  93.2765 266.8399 15.08844676 95704,6917.866,95.437,540.768,538.694,0.0
53252.0,STARLINK-4132,PAYLOAD,2024-04-11 04:45:06,15.08832674,0.0001637,53.2192,85.234,95.4119,264.706,2.0184e-05,3.3e-07,0.0,0 STARLINK-4132,1 53252U 22086L   24102.19799235  .00000033  00000-0  20184-4 0  9994,2 53252  53.2192  85.2340 0001637  95.4119 264.7060 15.08832674 95585,6917.903,95.438,540.9,538.635,0.0
53252.0,STARLINK-4132,PAYLOAD,2024-04-11 07:55:52,15.08832904,0.000155,53.2191,84.6389,91.743,268.3739,2.862e-05,1.67e-06,0.0,0 STARLINK-4132,1 53252U 22086L   24102.33047234  .00000167  00000-0  28620-4 0  9996,2 53252  53.2191  84.6389 0001550  91.7430 268.3739 15.08832904 95803,6917.902,95.438,540.839,538.695,0.0
53252.0,STARLINK-4132,PAYLOAD,2024-04-11 15:52:48,15.08840618,0.0001603,53.2191,83.1517,90.6035,269.5141,4.9059e-05,4.93e-06,0.0,0 STARLINK-4132,1 53252U 22086L   24102.66166766  .00000493  00000-0  49059-4 0  9995,2 53252  53.2191  83.1517 0001603  90.6035 269.5141 15.08840618 95652,6917.878,95.438,540.852,538.635,0.0
53252.0,STARLINK-4132,PAYLOAD,2024-04-12 04:35:53,15.08833833,0.0001409,53.2173,80.7721,90.7839,269.3315,1.8538e-05,7e-08,0.0,0 STARLINK-4132,1 53252U 22086L   24103.19159385  .00000007  00000-0  18538-4 0  9992,2 53252  53.2173  80.7721 0001409  90.7839 269.3315 15.08833833 95730,6917.899,95.438,540.739,538.79,0.0
53252.0,STARLINK-4132,PAYLOAD,2024-04-12 07:46:39,15.08836913,0.0001479,53.2183,80.1766,87.966,272.1502,1.3504e-05,-7.3e-07,0.0,0 STARLINK-4132,1 53252U 22086L   24103.32407266 -.00000073  00000-0  13504-4 0  9993,2 53252  53.2183  80.1766 0001479  87.9660 272.1502 15.08836913 95957,6917.89,95.438,540.778,538.732,0.0
53252.0,STARLINK-4132,PAYLOAD,2024-04-13 04:26:40,15.08843443,0.0001484,53.2177,76.3108,87.9441,272.1721,0.00010732,1.421e-05,0.0,0 STARLINK-4132,1 53252U 22086L   24104.18518718  .00001421  00000-0  10732-3 0  9999,2 53252  53.2177  76.3108 0001484  87.9441 272.1721 15.08843443 95881,6917.87,95.437,540.761,538.708,0.0
53252.0,STARLINK-4132,PAYLOAD,2024-04-13 07:37:26,15.08844961,0.0001474,53.2177,75.7155,88.6549,271.4612,0.00011792,1.589e-05,0.0,0 STARLINK-4132,1 53252U 22086L   24104.31766578  .00001589  00000-0  11792-3 0  9995,2 53252  53.2177  75.7155 0001474  88.6549 271.4612 15.08844961 96105,6917.865,95.437,540.75,538.711,0.0
53252.0,STARLINK-4132,PAYLOAD,2024-04-14 07:28:13,15.08844897,0.0001458,53.2176,71.2529,97.2966,262.8192,0.00010162,1.33e-05,0.0,0 STARLINK-4132,1 53252U 22086L   24105.31126615  .00001330  00000-0  10162-3 0  9992,2 53252  53.2176  71.2529 0001458  97.2966 262.8192 15.08844897 96050,6917.865,95.437,540.739,538.722,0.0
53252.0,STARLINK-4132,PAYLOAD,2024-04-15 07:19:00,15.08845718,0.0001078,53.2171,66.7982,98.0293,262.0822,1.3954e-06,-2.66e-06,0.0,0 STARLINK-4132,1 53252U 22086L   24106.30486364 -.00000266  00000-0  13954-5 0  9994,2 53252  53.2171  66.7982 0001078  98.0293 262.0822 15.08845718 96401,6917.863,95.437,540.474,538.982,0.0
53252.0,STARLINK-4132,PAYLOAD,2024-04-15 21:37:29,15.08834697,0.0001122,53.2173,64.121,103.988,256.1237,-5.8272e-05,-1.215e-05,0.0,0 STARLINK-4132,1 53252U 22086L   24106.90103441 -.00001215  00000-0 -58272-4 0  9999,2 53252  53.2173  64.1210 0001122 103.9880 256.1237 15.08834697 96292,6917.897,95.438,540.538,538.985,0.0
53252.0,STARLINK-4132,PAYLOAD,2024-04-16 03:59:01,15.08842186,0.0001392,53.2182,62.926,121.5517,238.5611,-5.1881e-05,-1.114e-05,0.0,0 STARLINK-4132,1 53252U 22086L   24107.16598859 -.00001114  00000-0 -51881-4 0  9996,2 53252  53.2182  62.9260 0001392 121.5517 238.5611 15.08842186 96332,6917.874,95.437,540.702,538.776,0.0
53252.0,STARLINK-4132,PAYLOAD,2024-04-16 13:31:19,15.08857827,0.0001298,53.2186,61.1434,92.868,267.2461,8.3586e-05,1.043e-05,0.0,0 STARLINK-4132,1 53252U 22086L   24107.56341446  .00001043  00000-0  83586-4 0  9994,2 53252  53.2186  61.1434 0001298  92.8680 267.2461 15.08857827 96594,6917.826,95.436,540.589,538.793,0.0
53252.0,STARLINK-4132,PAYLOAD,2024-04-17 02:14:25,15.08833096,0.0001364,53.2183,58.7659,83.0925,277.0222,0.00012361,1.68e-05,0.0,0 STARLINK-4132,1 53252U 22086L   24108.09334965  .00001680  00000-0  12361-3 0  9990,2 53252  53.2183  58.7659 0001364  83.0925 277.0222 15.08833096 96473,6917.901,95.438,540.71,538.823,0.0
53252.0,STARLINK-4132,PAYLOAD,2024-04-18 03:40:36,15.08826398,0.0001441,53.2175,54.0084,87.3292,272.7866,1.7354e-05,-1.2e-07,0.0,0 STARLINK-4132,1 53252U 22086L   24109.15320590 -.00000012  00000-0  17354-4 0  9994,2 53252  53.2175  54.0084 0001441  87.3292 272.7866 15.08826398 96636,6917.922,95.438,540.784,538.79,0.0
53252.0,STARLINK-4132,PAYLOAD,2024-04-18 06:51:23,15.08825082,0.0001356,53.2184,53.4163,112.9706,247.1429,3.1344e-05,2.11e-06,0.0,0 STARLINK-4132,1 53252U 22086L   24109.28568659  .00000211  00000-0  31344-4 0  9993,2 53252  53.2184  53.4163 0001356 112.9706 247.1429 15.08825082 96851,6917.926,95.438,540.729,538.853,0.0
53252.0,STARLINK-4132,PAYLOAD,2024-04-19 05:06:45,15.08859892,0.0001349,53.2185,49.2508,96.0354,264.0792,0.00015578,2.193e-05,0.0,0 STARLINK-4132,1 53252U 22086L   24110.21302523  .00002193  00000-0  15578-3 0  9995,2 53252  53.2185  49.2508 0001349  96.0354 264.0792 15.08859892 96791,6917.82,95.436,540.618,538.751,0.0
53252.0,STARLINK-4132,PAYLOAD,2024-04-20 03:22:10,15.08843002,0.0002213,53.2176,45.0855,70.6465,289.4766,0.00042289,6.449e-05,0.0,0 STARLINK-4132,1 53252U 22086L   24111.14040468  .00006449  00000-0  42289-3 0  9992,2 53252  53.2176  45.0855 0002213  70.6465 289.4766 15.08843002 96936,6917.871,95.437,541.267,538.205,0.0
